{"type":"FeatureCollection","features":[{"type":"Feature","id":"relation/8653722","properties":{"golf":"bunker","natural":"sand","type":"multipolygon","id":"relation/8653722"},"geometry":{"type":"Polygon","coordinates":[[[8.36775,48.97425],[8.36775,48.97427],[8.36774,48.97429],[8.36769,48.97431],[8.36765,48.97432],[8.36759,48.97432],[8.36754,48.97429],[8.36749,48.97427],[8.36744,48.97424],[8.3674,48.97422],[8.36736,48.9742],[8.36732,48.9742],[8.36727,48.9742],[8.36719,48.97419],[8.36715,48.97416],[8.36712,48.97415],[8.36706,48.97415],[8.36702,48.97416],[8.36697,48.97415],[8.36694,48.97413],[8.36694,48.97409],[8.36697,48.97407],[8.36704,48.97406],[8.36709,48.97405],[8.36716,48.97403],[8.36722,48.97403],[8.36726,48.97405],[8.36731,48.97406],[8.36734,48.97409],[8.36738,48.97412],[8.36741,48.97415],[8.36743,48.97416],[8.36748,48.97417],[8.36752,48.97418],[8.36759,48.97418],[8.36765,48.97418],[8.36771,48.97419],[8.36775,48.97422],[8.36775,48.97425]],[[8.36715,48.97413],[8.3672,48.97416],[8.36725,48.97418],[8.36732,48.97418],[8.36736,48.97417],[8.36737,48.97416],[8.36733,48.97411],[8.36726,48.97407],[8.3672,48.97405],[8.36715,48.97406],[8.36712,48.97409],[8.36713,48.97412],[8.36715,48.97413]]]}},{"type":"Feature","id":"relation/11268897","properties":{"natural":"sand","type":"multipolygon","id":"relation/11268897"},"geometry":{"type":"Polygon","coordinates":[[[8.4037,48.99764],[8.40364,48.99779],[8.40362,48.99782],[8.40353,48.99784],[8.40335,48.99783],[8.40334,48.99793],[8.40334,48.99794],[8.40319,48.99791],[8.40316,48.99762],[8.40338,48.99757],[8.40341,48.99757],[8.40346,48.99756],[8.40349,48.99756],[8.40352,48.99755],[8.40354,48.99754],[8.40356,48.99751],[8.40354,48.99749],[8.40352,48.99746],[8.40349,48.99745],[8.40352,48.99734],[8.40343,48.99727],[8.40342,48.99727],[8.40344,48.99721],[8.40323,48.99719],[8.40324,48.99712],[8.40325,48.99708],[8.40326,48.99706],[8.40327,48.99703],[8.4033,48.99701],[8.40334,48.997],[8.40336,48.997],[8.40337,48.99698],[8.40338,48.99696],[8.40338,48.99694],[8.40336,48.99692],[8.40334,48.9969],[8.40332,48.99686],[8.40331,48.99681],[8.40329,48.9968],[8.4033,48.99665],[8.40339,48.9966],[8.40354,48.99676],[8.40359,48.99682],[8.40363,48.99682],[8.40388,48.99709],[8.40388,48.99718],[8.40386,48.99727],[8.40394,48.99729],[8.40392,48.99741],[8.40389,48.99747],[8.40386,48.99757],[8.40381,48.99766],[8.4037,48.99764]],[[8.40329,48.99768],[8.40333,48.99764],[8.40333,48.99763],[8.40331,48.99761],[8.40328,48.9976],[8.40325,48.9976],[8.40322,48.99761],[8.40321,48.99763],[8.40322,48.99766],[8.40323,48.99767],[8.40327,48.99769],[8.40329,48.99768]],[[8.40338,48.99678],[8.40341,48.99679],[8.40342,48.99678],[8.40342,48.99675],[8.40338,48.99674],[8.40336,48.99676],[8.40338,48.99678]],[[8.40377,48.99722],[8.40375,48.99717],[8.40368,48.99714],[8.40364,48.99715],[8.40361,48.99716],[8.40359,48.99721],[8.40359,48.99726],[8.4037,48.99728],[8.40374,48.99726],[8.40377,48.99722]],[[8.40357,48.99735],[8.40359,48.99734],[8.4036,48.99734],[8.40361,48.99732],[8.4036,48.99731],[8.40359,48.99731],[8.40357,48.99731],[8.40356,48.99731],[8.40356,48.99732],[8.40355,48.99733],[8.40356,48.99734],[8.40357,48.99735]],[[8.40372,48.99744],[8.40376,48.99744],[8.40377,48.99743],[8.40377,48.99741],[8.40375,48.99741],[8.40373,48.99741],[8.40372,48.99744]],[[8.40365,48.99754],[8.40366,48.99755],[8.40367,48.99755],[8.40369,48.99754],[8.4037,48.99754],[8.40373,48.99752],[8.40373,48.99751],[8.40372,48.9975],[8.40371,48.9975],[8.40369,48.9975],[8.40368,48.9975],[8.40366,48.99752],[8.40365,48.99753],[8.40365,48.99754]],[[8.40353,48.99766],[8.40354,48.99764],[8.40353,48.99763],[8.4035,48.99762],[8.40349,48.99762],[8.40349,48.99763],[8.40349,48.99765],[8.40349,48.99766],[8.4035,48.99766],[8.40351,48.99766],[8.40352,48.99766],[8.40353,48.99766]],[[8.40347,48.99777],[8.40354,48.99776],[8.40354,48.99775],[8.40355,48.99773],[8.40354,48.99772],[8.40348,48.99771],[8.40347,48.99771],[8.40344,48.99773],[8.40344,48.99774],[8.40347,48.99777]]]}},{"type":"Feature","id":"relation/15327035","properties":{"natural":"sand","type":"multipolygon","id":"relation/15327035"},"geometry":{"type":"Polygon","coordinates":[[[8.4594,49.02623],[8.45944,49.02622],[8.45949,49.02622],[8.45952,49.02623],[8.45954,49.02626],[8.45953,49.02629],[8.4595,49.02631],[8.45945,49.02632],[8.45942,49.02632],[8.45939,49.0263],[8.45938,49.02627],[8.4594,49.02623]]]}},{"type":"Feature","id":"way/52276455","properties":{"access":"yes","leisure":"playground","playground":"sandpit","id":"way/52276455"},"geometry":{"type":"Polygon","coordinates":[[[8.36157,49.01393],[8.36159,49.01395],[8.3616,49.01397],[8.36159,49.014],[8.36158,49.01402],[8.36155,49.01404],[8.36151,49.01405],[8.36147,49.01405],[8.36144,49.01405],[8.3614,49.01404],[8.36138,49.01402],[8.36136,49.01399],[8.36136,49.01397],[8.36137,49.01394],[8.36139,49.01392],[8.36143,49.01391],[8.36146,49.0139],[8.3615,49.0139],[8.36154,49.01391],[8.36157,49.01393]]]}},{"type":"Feature","id":"way/110760393","properties":{"access":"private","leisure":"playground","playground":"sandpit","id":"way/110760393"},"geometry":{"type":"Polygon","coordinates":[[[8.37199,49.00671],[8.37199,49.00667],[8.37209,49.00667],[8.37208,49.00671],[8.37199,49.00671]]]}},{"type":"Feature","id":"way/155984368","properties":{"natural":"sand","id":"way/155984368"},"geometry":{"type":"Polygon","coordinates":[[[8.40118,48.99826],[8.4012,48.99836],[8.40115,48.99848],[8.40112,48.99849],[8.40111,48.99848],[8.40112,48.99844],[8.40106,48.99843],[8.40102,48.99857],[8.40093,48.9986],[8.40084,48.99863],[8.40072,48.99863],[8.40067,48.99858],[8.40068,48.99854],[8.40077,48.99843],[8.40083,48.99838],[8.40084,48.99838],[8.4009,48.99842],[8.40091,48.99841],[8.40094,48.99839],[8.40095,48.99837],[8.40096,48.99836],[8.40097,48.99834],[8.40096,48.99831],[8.40096,48.99829],[8.40088,48.9983],[8.40087,48.99825],[8.40089,48.9982],[8.40095,48.99816],[8.40098,48.99814],[8.40098,48.99812],[8.40097,48.9981],[8.40095,48.99808],[8.40105,48.99803],[8.40118,48.99807],[8.4012,48.99805],[8.40128,48.99804],[8.40129,48.99805],[8.4013,48.99806],[8.40131,48.99807],[8.40133,48.99807],[8.40135,48.99808],[8.40137,48.99807],[8.40139,48.99807],[8.4014,48.99806],[8.4014,48.99805],[8.40141,48.99804],[8.40142,48.99803],[8.40143,48.99802],[8.40143,48.99801],[8.40143,48.998],[8.40143,48.99798],[8.40143,48.99797],[8.40148,48.99797],[8.40153,48.99799],[8.40143,48.99814],[8.40137,48.99816],[8.40134,48.99817],[8.40131,48.99816],[8.40125,48.9982],[8.40123,48.99822],[8.4012,48.99823],[8.40118,48.99826]]]}},{"type":"Feature","id":"way/224968320","properties":{"access":"yes","leisure":"playground","playground":"sandpit","surface":"sand","id":"way/224968320"},"geometry":{"type":"Polygon","coordinates":[[[8.33871,49.03437],[8.3386,49.03436],[8.33852,49.03433],[8.33853,49.03425],[8.33862,49.0342],[8.33876,49.03418],[8.33886,49.03422],[8.33888,49.03428],[8.33882,49.03434],[8.33871,49.03437]]]}},{"type":"Feature","id":"way/288771741","properties":{"access":"yes","leisure":"playground","playground":"sandpit","id":"way/288771741"},"geometry":{"type":"Polygon","coordinates":[[[8.36352,49.02168],[8.36346,49.02152],[8.36376,49.02147],[8.36378,49.02153],[8.36395,49.0215],[8.36399,49.02162],[8.36352,49.02168]]]}},{"type":"Feature","id":"way/375471175","properties":{"natural":"sand","id":"way/375471175"},"geometry":{"type":"Polygon","coordinates":[[[8.38372,49.00898],[8.38376,49.00899],[8.38379,49.00901],[8.38381,49.00903],[8.38381,49.00906],[8.3838,49.00908],[8.38377,49.00911],[8.38374,49.00912],[8.3837,49.00913],[8.38366,49.00913],[8.38362,49.00912],[8.38359,49.0091],[8.38358,49.00907],[8.38357,49.00905],[8.38358,49.00902],[8.38361,49.009],[8.38364,49.00898],[8.38368,49.00898],[8.38372,49.00898]]]}},{"type":"Feature","id":"way/379654238","properties":{"access":"yes","leisure":"playground","playground":"sandpit","wheelchair":"limited","id":"way/379654238"},"geometry":{"type":"Polygon","coordinates":[[[8.40301,49.01226],[8.40303,49.01223],[8.40307,49.01222],[8.40312,49.01222],[8.40314,49.01227],[8.40312,49.0123],[8.40311,49.0123],[8.40309,49.01229],[8.40308,49.01229],[8.40306,49.01229],[8.40305,49.0123],[8.40303,49.01231],[8.40301,49.0123],[8.403,49.01227],[8.40301,49.01226]]]}},{"type":"Feature","id":"way/440661852","properties":{"area":"yes","playground":"sandpit","id":"way/440661852"},"geometry":{"type":"Polygon","coordinates":[[[8.40069,48.98782],[8.40071,48.98775],[8.40081,48.98775],[8.4008,48.98781],[8.40069,48.98782]]]}},{"type":"Feature","id":"way/485232515","properties":{"natural":"sand","id":"way/485232515"},"geometry":{"type":"Polygon","coordinates":[[[8.40231,48.99735],[8.40233,48.99732],[8.4023,48.99729],[8.40231,48.99725],[8.40235,48.99722],[8.40243,48.99725],[8.40244,48.99729],[8.40242,48.9973],[8.40242,48.99731],[8.40243,48.99733],[8.40242,48.99736],[8.40238,48.99736],[8.40233,48.99736],[8.40231,48.99735]]]}},{"type":"Feature","id":"way/514768309","properties":{"natural":"sand","id":"way/514768309"},"geometry":{"type":"Polygon","coordinates":[[[8.34575,49.03508],[8.34566,49.03497],[8.34567,49.03494],[8.34572,49.03494],[8.34582,49.03496],[8.34589,49.03496],[8.34594,49.03499],[8.34595,49.03502],[8.34594,49.03509],[8.34592,49.0351],[8.34587,49.0351],[8.34584,49.03509],[8.34575,49.03508]]]}},{"type":"Feature","id":"way/514768319","properties":{"natural":"sand","id":"way/514768319"},"geometry":{"type":"Polygon","coordinates":[[[8.34634,49.03539],[8.34633,49.03537],[8.34634,49.03535],[8.34635,49.03533],[8.34634,49.0353],[8.34633,49.03528],[8.34629,49.03526],[8.34638,49.03522],[8.3464,49.03524],[8.3464,49.03526],[8.34639,49.0353],[8.34639,49.03533],[8.34641,49.03537],[8.3464,49.03539],[8.34638,49.0354],[8.34634,49.03539]]]}},{"type":"Feature","id":"way/514768325","properties":{"natural":"sand","id":"way/514768325"},"geometry":{"type":"Polygon","coordinates":[[[8.34629,49.03526],[8.34629,49.03525],[8.34625,49.03525],[8.34623,49.03525],[8.3462,49.03524],[8.34618,49.03523],[8.34615,49.03522],[8.34613,49.03521],[8.34612,49.03519],[8.34611,49.03517],[8.34612,49.03514],[8.34611,49.03511],[8.34615,49.03511],[8.3462,49.03511],[8.34625,49.03512],[8.34632,49.03515],[8.34635,49.03518],[8.34638,49.03522],[8.34629,49.03526]]]}},{"type":"Feature","id":"way/525361931","properties":{"access":"customers","natural":"sand","id":"way/525361931"},"geometry":{"type":"Polygon","coordinates":[[[8.37595,48.99545],[8.37613,48.99543],[8.3761,48.99555],[8.37595,48.99555],[8.37595,48.99545]]]}},{"type":"Feature","id":"way/537228030","properties":{"natural":"sand","id":"way/537228030"},"geometry":{"type":"Polygon","coordinates":[[[8.44954,49.03875],[8.44959,49.03873],[8.44965,49.03877],[8.44969,49.03879],[8.44971,49.03879],[8.44967,49.03881],[8.44964,49.03882],[8.44963,49.03881],[8.4496,49.0388],[8.44958,49.03878],[8.44956,49.03876],[8.44954,49.03875]]]}},{"type":"Feature","id":"way/537228058","properties":{"natural":"sand","id":"way/537228058"},"geometry":{"type":"Polygon","coordinates":[[[8.44963,49.03976],[8.44969,49.0397],[8.44967,49.03968],[8.44963,49.03966],[8.44972,49.03963],[8.44979,49.03958],[8.44986,49.03955],[8.44992,49.03951],[8.45005,49.03945],[8.45013,49.03942],[8.45021,49.03939],[8.45026,49.0394],[8.45033,49.03939],[8.45042,49.03938],[8.45041,49.03941],[8.45033,49.03945],[8.45021,49.0395],[8.44999,49.0396],[8.44982,49.03967],[8.44969,49.03975],[8.44963,49.03976]]]}},{"type":"Feature","id":"way/537228062","properties":{"natural":"sand","id":"way/537228062"},"geometry":{"type":"Polygon","coordinates":[[[8.45035,49.03907],[8.45029,49.03909],[8.4502,49.03906],[8.45013,49.03904],[8.45006,49.03902],[8.45012,49.039],[8.45015,49.039],[8.45021,49.039],[8.45028,49.03904],[8.45035,49.03907]]]}},{"type":"Feature","id":"way/547262180","properties":{"natural":"sand","id":"way/547262180"},"geometry":{"type":"Polygon","coordinates":[[[8.4421,49.00757],[8.44213,49.00757],[8.44217,49.00759],[8.44221,49.0076],[8.44225,49.00761],[8.44227,49.00764],[8.44228,49.00767],[8.44229,49.0077],[8.44232,49.00773],[8.44239,49.00777],[8.44234,49.00778],[8.44229,49.00775],[8.44226,49.00772],[8.44224,49.00769],[8.44219,49.00765],[8.44213,49.00763],[8.44208,49.00762],[8.44206,49.00761],[8.44207,49.00761],[8.4421,49.00757]]]}},{"type":"Feature","id":"way/551286448","properties":{"natural":"sand","id":"way/551286448"},"geometry":{"type":"Polygon","coordinates":[[[8.44264,49.00783],[8.44261,49.00785],[8.44245,49.00779],[8.44249,49.00778],[8.44254,49.00778],[8.44259,49.00779],[8.44262,49.00781],[8.44264,49.00783]]]}},{"type":"Feature","id":"way/562207911","properties":{"natural":"sand","id":"way/562207911"},"geometry":{"type":"Polygon","coordinates":[[[8.44245,49.02632],[8.44231,49.02634],[8.44227,49.02623],[8.4424,49.02621],[8.44245,49.02632]]]}},{"type":"Feature","id":"way/562207912","properties":{"natural":"sand","id":"way/562207912"},"geometry":{"type":"Polygon","coordinates":[[[8.44258,49.0263],[8.44255,49.02624],[8.44274,49.02621],[8.44276,49.02627],[8.44258,49.0263]]]}},{"type":"Feature","id":"way/562207915","properties":{"natural":"sand","id":"way/562207915"},"geometry":{"type":"Polygon","coordinates":[[[8.4431,49.0264],[8.4431,49.0264],[8.4431,49.02641],[8.4431,49.02642],[8.4431,49.02643],[8.44309,49.02644],[8.44308,49.02644],[8.44306,49.02644],[8.44304,49.02644],[8.44302,49.02644],[8.44302,49.02643],[8.44302,49.02642],[8.44302,49.02641],[8.44303,49.0264],[8.44304,49.02639],[8.44304,49.02639],[8.44305,49.02638],[8.44305,49.02637],[8.44305,49.02637],[8.44304,49.02636],[8.44304,49.02634],[8.44305,49.02633],[8.44306,49.02631],[8.44309,49.0263],[8.44312,49.0263],[8.44315,49.0263],[8.44316,49.02631],[8.44319,49.02633],[8.44319,49.02634],[8.44319,49.02636],[8.44318,49.02637],[8.44317,49.02638],[8.44315,49.02639],[8.44313,49.0264],[8.4431,49.0264]]]}},{"type":"Feature","id":"way/577813858","properties":{"natural":"sand","id":"way/577813858"},"geometry":{"type":"Polygon","coordinates":[[[8.44279,49.02147],[8.44388,49.02109],[8.44446,49.02089],[8.44452,49.02086],[8.4446,49.02082],[8.44463,49.02085],[8.44444,49.02098],[8.44429,49.02104],[8.44326,49.0214],[8.44285,49.02155],[8.44279,49.02147]]]}},{"type":"Feature","id":"way/577813859","properties":{"natural":"sand","id":"way/577813859"},"geometry":{"type":"Polygon","coordinates":[[[8.44275,49.02141],[8.44273,49.0214],[8.44271,49.02138],[8.44301,49.02127],[8.44413,49.02088],[8.44415,49.02086],[8.44416,49.02083],[8.44421,49.02079],[8.44426,49.02076],[8.44431,49.02076],[8.44438,49.02076],[8.44442,49.02076],[8.44448,49.02072],[8.44454,49.02077],[8.44447,49.0208],[8.44442,49.02083],[8.44275,49.02141]]]}},{"type":"Feature","id":"way/584930925","properties":{"natural":"sand","id":"way/584930925"},"geometry":{"type":"Polygon","coordinates":[[[8.38845,49.02493],[8.38841,49.02476],[8.38855,49.02474],[8.38858,49.02492],[8.38845,49.02493]]]}},{"type":"Feature","id":"way/614039503","properties":{"natural":"sand","id":"way/614039503"},"geometry":{"type":"Polygon","coordinates":[[[8.44476,49.01858],[8.4448,49.01857],[8.44483,49.01861],[8.4448,49.01862],[8.44476,49.01858]]]}},{"type":"Feature","id":"way/621618735","properties":{"natural":"sand","place":"islet","id":"way/621618735"},"geometry":{"type":"Polygon","coordinates":[[[8.43048,48.98368],[8.43046,48.98366],[8.43048,48.98363],[8.43064,48.98357],[8.4307,48.98356],[8.43072,48.98358],[8.4307,48.98361],[8.43055,48.98367],[8.43048,48.98368]]]}},{"type":"Feature","id":"way/621618736","properties":{"natural":"sand","place":"islet","id":"way/621618736"},"geometry":{"type":"Polygon","coordinates":[[[8.43101,48.98388],[8.43101,48.98383],[8.43108,48.98379],[8.4312,48.98381],[8.43145,48.98376],[8.43171,48.98371],[8.43171,48.98376],[8.43157,48.98383],[8.43153,48.98388],[8.43163,48.98396],[8.43158,48.98401],[8.43149,48.98401],[8.43101,48.98388]]]}},{"type":"Feature","id":"way/632011249","properties":{"natural":"sand","playground":"sandpit","id":"way/632011249"},"geometry":{"type":"Polygon","coordinates":[[[8.39758,48.9939],[8.39761,48.9939],[8.39761,48.99391],[8.39758,48.99392],[8.39758,48.9939]]]}},{"type":"Feature","id":"way/632011250","properties":{"natural":"sand","playground":"sandpit","id":"way/632011250"},"geometry":{"type":"Polygon","coordinates":[[[8.3974,48.99394],[8.39743,48.99393],[8.39744,48.99395],[8.39741,48.99396],[8.3974,48.99394]]]}},{"type":"Feature","id":"way/632011251","properties":{"natural":"sand","id":"way/632011251"},"geometry":{"type":"Polygon","coordinates":[[[8.39733,48.99396],[8.39729,48.99395],[8.39727,48.99394],[8.39725,48.99393],[8.39728,48.99388],[8.39731,48.9939],[8.39734,48.99391],[8.39738,48.99391],[8.39742,48.9939],[8.39745,48.9939],[8.39745,48.99391],[8.39743,48.99393],[8.39739,48.99393],[8.39737,48.99394],[8.39734,48.99394],[8.39733,48.99396]]]}},{"type":"Feature","id":"way/632011252","properties":{"natural":"sand","id":"way/632011252"},"geometry":{"type":"Polygon","coordinates":[[[8.39754,48.99391],[8.39753,48.99392],[8.39754,48.99393],[8.39751,48.99394],[8.39751,48.99392],[8.3975,48.99392],[8.39749,48.99389],[8.39757,48.99388],[8.39758,48.99389],[8.39754,48.9939],[8.39754,48.99391]]]}},{"type":"Feature","id":"way/643150837","properties":{"natural":"sand","id":"way/643150837"},"geometry":{"type":"Polygon","coordinates":[[[8.43675,49.03077],[8.43696,49.03074],[8.43701,49.03087],[8.4368,49.0309],[8.43675,49.03077]]]}},{"type":"Feature","id":"way/658856334","properties":{"natural":"sand","id":"way/658856334"},"geometry":{"type":"Polygon","coordinates":[[[8.45948,49.02618],[8.45947,49.02617],[8.45947,49.02617],[8.45947,49.02615],[8.45949,49.02614],[8.4595,49.02613],[8.45951,49.02612],[8.45952,49.02611],[8.45953,49.0261],[8.45954,49.0261],[8.45955,49.02609],[8.45956,49.02609],[8.45957,49.02609],[8.45958,49.0261],[8.45959,49.0261],[8.45959,49.02612],[8.45959,49.02613],[8.45959,49.02614],[8.45958,49.02615],[8.45957,49.02616],[8.45956,49.02616],[8.45954,49.02617],[8.45953,49.02618],[8.45951,49.02618],[8.4595,49.02618],[8.45949,49.02618],[8.45948,49.02618]]]}},{"type":"Feature","id":"way/670985903","properties":{"natural":"sand","id":"way/670985903"},"geometry":{"type":"Polygon","coordinates":[[[8.38515,49.03859],[8.38501,49.03862],[8.38496,49.03863],[8.38487,49.03861],[8.38481,49.03858],[8.3848,49.03855],[8.38482,49.03851],[8.38485,49.03847],[8.38486,49.03846],[8.38493,49.03838],[8.38496,49.03836],[8.38502,49.03836],[8.38507,49.03837],[8.38514,49.03841],[8.38518,49.03847],[8.3852,49.03851],[8.38519,49.03857],[8.38515,49.03859]]]}},{"type":"Feature","id":"way/691480532","properties":{"natural":"sand","source":"Bing 2013","id":"way/691480532"},"geometry":{"type":"Polygon","coordinates":[[[8.45267,49.03285],[8.45266,49.03285],[8.45265,49.03284],[8.45265,49.03284],[8.45265,49.03283],[8.45265,49.03282],[8.45264,49.03281],[8.45264,49.0328],[8.45264,49.03279],[8.45264,49.03278],[8.45264,49.03277],[8.45265,49.03276],[8.45266,49.03275],[8.45268,49.03275],[8.4527,49.03276],[8.4527,49.03276],[8.45271,49.03277],[8.45271,49.03279],[8.45271,49.0328],[8.45271,49.03281],[8.45271,49.03282],[8.4527,49.03283],[8.4527,49.03284],[8.45269,49.03285],[8.45269,49.03285],[8.45267,49.03285],[8.45267,49.03285]]]}},{"type":"Feature","id":"way/691480535","properties":{"natural":"sand","source":"Bing 2013","id":"way/691480535"},"geometry":{"type":"Polygon","coordinates":[[[8.45272,49.03278],[8.45303,49.03278],[8.45303,49.03285],[8.45303,49.03286],[8.45303,49.03286],[8.45303,49.03287],[8.45272,49.03287],[8.45272,49.03286],[8.45272,49.03278]]]}},{"type":"Feature","id":"way/691480537","properties":{"natural":"sand","source":"Bing 2013","id":"way/691480537"},"geometry":{"type":"Polygon","coordinates":[[[8.4528,49.03273],[8.45276,49.03273],[8.45271,49.03272],[8.45268,49.03272],[8.45265,49.03272],[8.45264,49.03272],[8.45263,49.03271],[8.45263,49.0327],[8.45264,49.03269],[8.45268,49.03269],[8.45272,49.03268],[8.45277,49.03267],[8.45281,49.03266],[8.45285,49.03266],[8.45288,49.03267],[8.4529,49.03268],[8.45292,49.0327],[8.45292,49.0327],[8.45289,49.03272],[8.45287,49.03272],[8.45284,49.03273],[8.45282,49.03273],[8.4528,49.03273]]]}},{"type":"Feature","id":"way/691480538","properties":{"natural":"sand","note":"Bing 2013 nicht mehr aktuell!","source":"Bing 2017","id":"way/691480538"},"geometry":{"type":"Polygon","coordinates":[[[8.4527,49.03261],[8.4527,49.03256],[8.4527,49.03255],[8.45309,49.03255],[8.45311,49.03256],[8.45312,49.03258],[8.45313,49.03263],[8.45311,49.03265],[8.45309,49.03266],[8.45306,49.03267],[8.45298,49.03267],[8.45293,49.03266],[8.45291,49.03265],[8.45289,49.03264],[8.45287,49.03263],[8.45284,49.03262],[8.45282,49.03263],[8.45279,49.03263],[8.45276,49.03263],[8.45272,49.03263],[8.45271,49.03262],[8.4527,49.03261]]]}},{"type":"Feature","id":"way/708595398","properties":{"area":"yes","playground":"sandpit","surface":"sand","id":"way/708595398"},"geometry":{"type":"Polygon","coordinates":[[[8.44934,49.02962],[8.44934,49.02964],[8.44934,49.02966],[8.44935,49.02969],[8.44936,49.02971],[8.44919,49.02972],[8.44917,49.02969],[8.44896,49.02969],[8.44896,49.02964],[8.44898,49.02963],[8.44934,49.02962]]]}},{"type":"Feature","id":"way/766784660","properties":{"natural":"sand","id":"way/766784660"},"geometry":{"type":"Polygon","coordinates":[[[8.40472,48.99066],[8.40477,48.99066],[8.40483,48.99066],[8.40486,48.99066],[8.40492,48.99066],[8.40496,48.99067],[8.405,48.99068],[8.40502,48.9907],[8.40505,48.99071],[8.40506,48.99072],[8.40512,48.99076],[8.40514,48.99078],[8.40517,48.99079],[8.40522,48.99081],[8.40524,48.99081],[8.40528,48.99081],[8.40536,48.99082],[8.4054,48.99083],[8.40544,48.99084],[8.40547,48.99085],[8.40544,48.99089],[8.40541,48.99091],[8.40538,48.99092],[8.40529,48.99092],[8.40527,48.99091],[8.40523,48.99089],[8.40519,48.99089],[8.40513,48.99088],[8.40509,48.99087],[8.40506,48.99086],[8.40501,48.99085],[8.40498,48.99083],[8.40492,48.99077],[8.40489,48.99076],[8.40485,48.99074],[8.40482,48.99073],[8.40477,48.99072],[8.40473,48.99071],[8.4047,48.99069],[8.40472,48.99066]]]}},{"type":"Feature","id":"way/778117492","properties":{"access":"yes","leisure":"playground","natural":"sand","id":"way/778117492"},"geometry":{"type":"Polygon","coordinates":[[[8.39009,48.9852],[8.39003,48.98512],[8.39,48.98512],[8.38998,48.98511],[8.38996,48.98509],[8.38997,48.98507],[8.38998,48.98505],[8.39022,48.98498],[8.39034,48.98514],[8.39013,48.9852],[8.39009,48.9852]]]}},{"type":"Feature","id":"way/822665724","properties":{"natural":"sand","id":"way/822665724"},"geometry":{"type":"Polygon","coordinates":[[[8.40313,48.99741],[8.40317,48.99741],[8.40316,48.99743],[8.40315,48.99747],[8.40308,48.99749],[8.40302,48.99745],[8.40303,48.99741],[8.40304,48.99737],[8.40306,48.99738],[8.40314,48.99739],[8.40313,48.99741]]]}},{"type":"Feature","id":"way/854605926","properties":{"natural":"sand","id":"way/854605926"},"geometry":{"type":"Polygon","coordinates":[[[8.46935,49.02558],[8.46935,49.02557],[8.46936,49.02556],[8.46937,49.02556],[8.46939,49.02556],[8.46935,49.02558]]]}},{"type":"Feature","id":"way/854605927","properties":{"natural":"sand","id":"way/854605927"},"geometry":{"type":"Polygon","coordinates":[[[8.46925,49.02564],[8.46924,49.02564],[8.46923,49.02564],[8.46923,49.02563],[8.46924,49.02562],[8.46924,49.02562],[8.46924,49.02562],[8.46925,49.02561],[8.46926,49.02561],[8.46927,49.02561],[8.46928,49.02562],[8.46925,49.02564]]]}},{"type":"Feature","id":"way/854605928","properties":{"natural":"sand","id":"way/854605928"},"geometry":{"type":"Polygon","coordinates":[[[8.46917,49.02575],[8.46916,49.02575],[8.46916,49.02573],[8.46916,49.02572],[8.46916,49.02572],[8.46918,49.02571],[8.46919,49.02571],[8.46919,49.02572],[8.46917,49.02575]]]}},{"type":"Feature","id":"way/854605930","properties":{"natural":"sand","id":"way/854605930"},"geometry":{"type":"Polygon","coordinates":[[[8.46933,49.02582],[8.46933,49.02581],[8.46934,49.02581],[8.46934,49.0258],[8.46935,49.0258],[8.46936,49.0258],[8.46937,49.0258],[8.46937,49.0258],[8.46937,49.02581],[8.46933,49.02582]]]}},{"type":"Feature","id":"way/854605933","properties":{"natural":"sand","id":"way/854605933"},"geometry":{"type":"Polygon","coordinates":[[[8.46907,49.02591],[8.46907,49.02591],[8.46908,49.0259],[8.46909,49.0259],[8.4691,49.0259],[8.46911,49.0259],[8.46912,49.0259],[8.46912,49.0259],[8.46912,49.02591],[8.46907,49.02591]]]}},{"type":"Feature","id":"way/858717910","properties":{"natural":"sand","id":"way/858717910"},"geometry":{"type":"Polygon","coordinates":[[[8.40104,49.00122],[8.40096,49.00123],[8.40097,49.00127],[8.40081,49.00129],[8.40083,49.00138],[8.40077,49.00138],[8.40076,49.00135],[8.40075,49.00131],[8.40078,49.00128],[8.40082,49.00125],[8.4008,49.0012],[8.40079,49.00114],[8.40082,49.00113],[8.40086,49.00113],[8.40103,49.00119],[8.40104,49.00122]]]}},{"type":"Feature","id":"way/858717918","properties":{"natural":"sand","id":"way/858717918"},"geometry":{"type":"Polygon","coordinates":[[[8.40116,49.00111],[8.40111,49.00112],[8.40108,49.00111],[8.40107,49.00111],[8.40106,49.0011],[8.40105,49.00108],[8.40106,49.00107],[8.40107,49.00106],[8.40108,49.00105],[8.4011,49.00105],[8.40116,49.00104],[8.40116,49.00111]]]}},{"type":"Feature","id":"way/899026387","properties":{"natural":"sand","id":"way/899026387"},"geometry":{"type":"Polygon","coordinates":[[[8.41908,49.00225],[8.41907,49.00225],[8.41906,49.00224],[8.41906,49.00221],[8.41905,49.00217],[8.41904,49.00214],[8.41905,49.00212],[8.41907,49.0021],[8.41909,49.0021],[8.41911,49.0021],[8.41913,49.00212],[8.41913,49.00216],[8.41913,49.00219],[8.41912,49.00222],[8.41911,49.00225],[8.41908,49.00225]]]}},{"type":"Feature","id":"way/901570361","properties":{"natural":"sand","id":"way/901570361"},"geometry":{"type":"Polygon","coordinates":[[[8.41632,49.0021],[8.41634,49.00207],[8.41636,49.00206],[8.41638,49.00206],[8.41641,49.00204],[8.41641,49.00202],[8.41655,49.00203],[8.41649,49.00205],[8.41641,49.00212],[8.41632,49.0021]]]}},{"type":"Feature","id":"way/901570362","properties":{"natural":"sand","id":"way/901570362"},"geometry":{"type":"Polygon","coordinates":[[[8.41631,49.00216],[8.41631,49.00214],[8.41634,49.00213],[8.41636,49.00213],[8.41638,49.00214],[8.41638,49.00215],[8.41638,49.00217],[8.41638,49.00218],[8.41636,49.00219],[8.41635,49.00219],[8.41634,49.00218],[8.41631,49.00216]]]}},{"type":"Feature","id":"way/901570363","properties":{"natural":"sand","id":"way/901570363"},"geometry":{"type":"Polygon","coordinates":[[[8.41631,49.00218],[8.41633,49.00219],[8.41633,49.0022],[8.41633,49.00222],[8.41632,49.00223],[8.41631,49.00224],[8.41629,49.00223],[8.41628,49.00222],[8.41629,49.00219],[8.41629,49.00218],[8.41631,49.00218]]]}},{"type":"Feature","id":"way/901570364","properties":{"natural":"sand","id":"way/901570364"},"geometry":{"type":"Polygon","coordinates":[[[8.41635,49.0023],[8.41634,49.0023],[8.41635,49.00228],[8.41636,49.00227],[8.41639,49.00227],[8.41643,49.00228],[8.41647,49.0023],[8.41648,49.00231],[8.41646,49.00232],[8.41645,49.00233],[8.41641,49.00232],[8.41635,49.0023]]]}},{"type":"Feature","id":"way/901598089","properties":{"natural":"sand","id":"way/901598089"},"geometry":{"type":"Polygon","coordinates":[[[8.41824,49.00315],[8.4183,49.00313],[8.41851,49.00313],[8.4185,49.00321],[8.41825,49.00321],[8.41824,49.00315]]]}},{"type":"Feature","id":"way/904148104","properties":{"natural":"sand","id":"way/904148104"},"geometry":{"type":"Polygon","coordinates":[[[8.41618,49.00316],[8.4162,49.00315],[8.41622,49.00315],[8.41626,49.00314],[8.41629,49.00315],[8.41631,49.00316],[8.41631,49.00318],[8.41629,49.00319],[8.41627,49.0032],[8.41625,49.0032],[8.41621,49.0032],[8.41619,49.00319],[8.41618,49.00318],[8.41618,49.00316]]]}},{"type":"Feature","id":"way/904148105","properties":{"natural":"sand","id":"way/904148105"},"geometry":{"type":"Polygon","coordinates":[[[8.41652,49.00311],[8.41653,49.0031],[8.41651,49.0031],[8.4165,49.0031],[8.41649,49.00309],[8.41649,49.00307],[8.41651,49.00306],[8.41653,49.00306],[8.41655,49.00307],[8.41655,49.00308],[8.41656,49.00309],[8.41658,49.00309],[8.41659,49.0031],[8.4166,49.00311],[8.4166,49.00313],[8.41659,49.00314],[8.41656,49.00314],[8.41654,49.00314],[8.41653,49.00312],[8.41652,49.00311]]]}},{"type":"Feature","id":"way/908572372","properties":{"natural":"sand","id":"way/908572372"},"geometry":{"type":"Polygon","coordinates":[[[8.42056,49.00076],[8.42055,49.00074],[8.42054,49.00073],[8.42055,49.00072],[8.42057,49.00071],[8.4206,49.00071],[8.42062,49.00072],[8.42063,49.00073],[8.42064,49.00074],[8.42064,49.00075],[8.42061,49.00076],[8.42059,49.00076],[8.42056,49.00076]]]}},{"type":"Feature","id":"way/914258687","properties":{"natural":"sand","id":"way/914258687"},"geometry":{"type":"Polygon","coordinates":[[[8.41407,48.99846],[8.41383,48.99848],[8.41382,48.99845],[8.41384,48.99841],[8.41388,48.99839],[8.41398,48.99839],[8.41401,48.99842],[8.41405,48.99844],[8.41407,48.99846]]]}},{"type":"Feature","id":"way/916767575","properties":{"natural":"sand","id":"way/916767575"},"geometry":{"type":"Polygon","coordinates":[[[8.41639,49.00139],[8.4164,49.00133],[8.4165,49.00133],[8.4165,49.00138],[8.41649,49.00139],[8.41639,49.00139]]]}},{"type":"Feature","id":"way/916767576","properties":{"natural":"sand","id":"way/916767576"},"geometry":{"type":"Polygon","coordinates":[[[8.41631,49.00139],[8.41621,49.00138],[8.41621,49.00137],[8.41621,49.00133],[8.41631,49.00133],[8.41631,49.00139]]]}},{"type":"Feature","id":"way/926010883","properties":{"access":"customers","leisure":"playground","natural":"sand","id":"way/926010883"},"geometry":{"type":"Polygon","coordinates":[[[8.41783,49.00268],[8.41778,49.00263],[8.41778,49.00261],[8.41802,49.0026],[8.41807,49.00264],[8.41822,49.00268],[8.41821,49.0027],[8.41817,49.0027],[8.41812,49.00269],[8.418,49.00268],[8.41783,49.00268]]]}},{"type":"Feature","id":"way/926010884","properties":{"access":"customers","leisure":"playground","natural":"sand","id":"way/926010884"},"geometry":{"type":"Polygon","coordinates":[[[8.4177,49.00265],[8.41769,49.00267],[8.41766,49.00266],[8.41764,49.00266],[8.41757,49.00265],[8.41753,49.00265],[8.41749,49.00261],[8.41749,49.00259],[8.41752,49.00259],[8.4176,49.00258],[8.4177,49.00259],[8.41766,49.00264],[8.4177,49.00265]]]}},{"type":"Feature","id":"way/986791887","properties":{"natural":"sand","id":"way/986791887"},"geometry":{"type":"Polygon","coordinates":[[[8.45269,49.03136],[8.45266,49.03136],[8.45263,49.03136],[8.4526,49.03137],[8.4526,49.03138],[8.4526,49.03138],[8.45261,49.03139],[8.45263,49.03139],[8.45265,49.03139],[8.45266,49.0314],[8.45266,49.0314],[8.45266,49.03141],[8.45264,49.03142],[8.45262,49.03143],[8.45261,49.03142],[8.45259,49.03141],[8.45258,49.0314],[8.45257,49.03139],[8.45256,49.0314],[8.45255,49.0314],[8.45254,49.03141],[8.45253,49.03141],[8.45253,49.03142],[8.45253,49.03142],[8.45253,49.03143],[8.45252,49.03143],[8.4525,49.03143],[8.4525,49.03142],[8.4525,49.03142],[8.4525,49.03141],[8.45247,49.03141],[8.45244,49.0314],[8.45243,49.03138],[8.45242,49.03137],[8.45239,49.03137],[8.45237,49.03137],[8.45236,49.03139],[8.45237,49.0314],[8.45237,49.03141],[8.45237,49.03142],[8.45238,49.03144],[8.45237,49.03144],[8.45235,49.03144],[8.45232,49.03143],[8.45231,49.03142],[8.45233,49.03141],[8.45234,49.03139],[8.45234,49.03138],[8.45233,49.03137],[8.45232,49.03136],[8.4523,49.03136],[8.45228,49.03136],[8.45228,49.03133],[8.45231,49.03132],[8.45232,49.03132],[8.45233,49.03131],[8.45234,49.03129],[8.45233,49.03128],[8.45233,49.03127],[8.45233,49.03126],[8.45234,49.03125],[8.45235,49.03125],[8.45238,49.03125],[8.4524,49.03126],[8.45242,49.03126],[8.45244,49.03127],[8.45246,49.03127],[8.45246,49.03129],[8.45246,49.0313],[8.45247,49.03132],[8.45249,49.03133],[8.45252,49.03134],[8.45254,49.03134],[8.45255,49.03134],[8.45257,49.03134],[8.45258,49.03133],[8.45261,49.0313],[8.45269,49.03133],[8.45269,49.03136]]]}},{"type":"Feature","id":"way/1032684260","properties":{"natural":"sand","id":"way/1032684260"},"geometry":{"type":"Polygon","coordinates":[[[8.35053,49.03624],[8.35066,49.03632],[8.35059,49.03637],[8.35046,49.03629],[8.35053,49.03624]]]}},{"type":"Feature","id":"way/1095324737","properties":{"natural":"sand","id":"way/1095324737"},"geometry":{"type":"Polygon","coordinates":[[[8.40261,48.99628],[8.40241,48.9962],[8.40237,48.99617],[8.40235,48.99618],[8.4023,48.99613],[8.40228,48.99615],[8.40198,48.99593],[8.40198,48.9959],[8.40199,48.99588],[8.40202,48.99587],[8.40206,48.99586],[8.40209,48.99586],[8.40215,48.99585],[8.40221,48.99585],[8.40226,48.99584],[8.40231,48.99585],[8.40236,48.99588],[8.40238,48.99593],[8.4027,48.99612],[8.40267,48.99615],[8.40268,48.99618],[8.40269,48.9962],[8.4027,48.99621],[8.40269,48.99623],[8.40268,48.99624],[8.40267,48.99625],[8.40263,48.99627],[8.40261,48.99628]]]}},{"type":"Feature","id":"way/1137577181","properties":{"access":"yes","natural":"sand","surface":"sand","id":"way/1137577181"},"geometry":{"type":"Polygon","coordinates":[[[8.39218,49.03599],[8.39198,49.03588],[8.39205,49.03584],[8.3922,49.03592],[8.39218,49.03599]]]}},{"type":"Feature","id":"way/1164806403","properties":{"natural":"sand","id":"way/1164806403"},"geometry":{"type":"Polygon","coordinates":[[[8.41124,49.01464],[8.41122,49.01464],[8.41121,49.01464],[8.4112,49.01463],[8.4112,49.01462],[8.4112,49.01461],[8.41121,49.0146],[8.41122,49.0146],[8.41124,49.0146],[8.41125,49.0146],[8.41126,49.01461],[8.41127,49.01462],[8.41127,49.01463],[8.41126,49.01463],[8.41125,49.01464],[8.41124,49.01464]]]}},{"type":"Feature","id":"way/1164806404","properties":{"natural":"sand","id":"way/1164806404"},"geometry":{"type":"Polygon","coordinates":[[[8.41138,49.01471],[8.41138,49.0147],[8.41136,49.01469],[8.41135,49.01468],[8.41136,49.01467],[8.41137,49.01466],[8.4114,49.01466],[8.41142,49.01466],[8.41145,49.01467],[8.41148,49.01467],[8.41151,49.01467],[8.41154,49.01467],[8.41156,49.01467],[8.41159,49.01466],[8.41163,49.01465],[8.41165,49.01465],[8.41168,49.01464],[8.4117,49.01464],[8.41173,49.01463],[8.41174,49.01463],[8.41176,49.01463],[8.41177,49.01464],[8.41177,49.01465],[8.41177,49.01465],[8.41177,49.01466],[8.41175,49.01467],[8.41169,49.01469],[8.41165,49.0147],[8.41161,49.01472],[8.41158,49.01473],[8.41155,49.01474],[8.41151,49.01475],[8.41149,49.01476],[8.41148,49.01477],[8.41147,49.01478],[8.41146,49.01479],[8.41145,49.01478],[8.41144,49.01478],[8.41142,49.01477],[8.4114,49.01477],[8.41138,49.01477],[8.41137,49.01476],[8.41135,49.01473],[8.41137,49.01472],[8.41138,49.01471]]]}},{"type":"Feature","id":"way/1164806405","properties":{"natural":"sand","id":"way/1164806405"},"geometry":{"type":"Polygon","coordinates":[[[8.41135,49.01489],[8.41139,49.01487],[8.41143,49.01486],[8.41148,49.01484],[8.41151,49.01483],[8.41153,49.01482],[8.41157,49.01481],[8.41161,49.01479],[8.41164,49.01479],[8.4117,49.01481],[8.41173,49.01483],[8.41175,49.01486],[8.41177,49.01489],[8.41177,49.01491],[8.41176,49.01493],[8.4117,49.01494],[8.41167,49.01495],[8.41165,49.01497],[8.41165,49.015],[8.41165,49.01502],[8.41164,49.01503],[8.41162,49.01504],[8.41159,49.01504],[8.41155,49.01504],[8.41151,49.01503],[8.41148,49.01502],[8.41143,49.015],[8.41139,49.01493],[8.41135,49.01489]]]}},{"type":"Feature","id":"way/1164806406","properties":{"natural":"sand","id":"way/1164806406"},"geometry":{"type":"Polygon","coordinates":[[[8.41079,49.01484],[8.41078,49.01477],[8.41079,49.01476],[8.41085,49.01475],[8.41088,49.01475],[8.4109,49.01475],[8.41091,49.01476],[8.41092,49.01478],[8.41093,49.0148],[8.41093,49.01483],[8.41092,49.01485],[8.4109,49.01486],[8.41087,49.01487],[8.41084,49.01488],[8.41081,49.01487],[8.41079,49.01487],[8.41079,49.01485],[8.41079,49.01484]]]}},{"type":"Feature","id":"way/1164806407","properties":{"natural":"sand","id":"way/1164806407"},"geometry":{"type":"Polygon","coordinates":[[[8.41165,49.01454],[8.41162,49.01455],[8.41158,49.01455],[8.41154,49.01454],[8.41153,49.01454],[8.41152,49.01451],[8.41131,49.01445],[8.41119,49.01442],[8.41101,49.01439],[8.41095,49.01439],[8.41089,49.01439],[8.41083,49.01438],[8.41078,49.01438],[8.41071,49.01433],[8.41072,49.01428],[8.41076,49.01424],[8.41082,49.01423],[8.41087,49.01421],[8.41091,49.01419],[8.41094,49.01416],[8.41097,49.01412],[8.41099,49.0141],[8.41102,49.01409],[8.41105,49.01408],[8.41113,49.01408],[8.41123,49.01408],[8.41138,49.01408],[8.41146,49.01409],[8.41151,49.0141],[8.41155,49.01411],[8.41159,49.01413],[8.41163,49.01416],[8.41165,49.01417],[8.41167,49.01421],[8.4117,49.01424],[8.41171,49.01427],[8.41172,49.01432],[8.41173,49.01435],[8.41174,49.01438],[8.41176,49.01441],[8.41181,49.01447],[8.41182,49.01448],[8.4118,49.01449],[8.41175,49.01448],[8.41172,49.01449],[8.41171,49.01449],[8.41169,49.0145],[8.41168,49.01451],[8.41167,49.01451],[8.41166,49.01453],[8.41165,49.01454]]]}},{"type":"Feature","id":"way/1214127167","properties":{"natural":"sand","id":"way/1214127167"},"geometry":{"type":"Polygon","coordinates":[[[8.41519,49.00067],[8.41514,49.00067],[8.41509,49.0007],[8.41509,49.0006],[8.41514,49.00063],[8.41519,49.00064],[8.41519,49.00067]]]}},{"type":"Feature","id":"way/413533850","properties":{"playground":"sandpit","id":"way/413533850"},"geometry":{"type":"LineString","coordinates":[[8.37531,48.99861],[8.3754,48.99849],[8.37524,48.99845],[8.37518,48.99849],[8.37531,48.99861]]}},{"type":"Feature","id":"way/416438444","properties":{"playground":"sandpit","surface":"sand","id":"way/416438444"},"geometry":{"type":"LineString","coordinates":[[8.37592,49.00507],[8.37593,49.00504],[8.37594,49.00503],[8.37597,49.00502],[8.37599,49.00502],[8.37601,49.00502],[8.37606,49.00505],[8.37607,49.00504],[8.37605,49.00495],[8.37604,49.00494],[8.37602,49.00494],[8.37591,49.00495],[8.3759,49.00495],[8.37588,49.00496],[8.37585,49.00503],[8.37585,49.00504],[8.37585,49.00504],[8.37592,49.00507]]}},{"type":"Feature","id":"way/491281919","properties":{"playground":"sandpit","id":"way/491281919"},"geometry":{"type":"LineString","coordinates":[[8.41789,49.00214],[8.41793,49.00214],[8.41797,49.00213],[8.41799,49.00212],[8.41802,49.00209],[8.41805,49.00206],[8.41805,49.00204],[8.41803,49.00203],[8.41802,49.00202],[8.41798,49.00202],[8.4179,49.00205],[8.41786,49.00209],[8.41785,49.0021],[8.41785,49.00211],[8.41786,49.00213],[8.41789,49.00214]]}},{"type":"Feature","id":"way/846777774","properties":{"playground":"sandpit","id":"way/846777774"},"geometry":{"type":"LineString","coordinates":[[8.49208,48.9955],[8.49214,48.99546],[8.49216,48.99542],[8.49211,48.99537],[8.4921,48.99536],[8.49198,48.99545],[8.49208,48.9955]]}},{"type":"Feature","id":"way/891692710","properties":{"playground":"sandpit","playground:theme":"ship","id":"way/891692710"},"geometry":{"type":"LineString","coordinates":[[8.4298,49.01284],[8.42984,49.01284],[8.42987,49.01282],[8.4299,49.01279],[8.4299,49.01277],[8.42987,49.01274],[8.42982,49.01271],[8.42976,49.0127],[8.42974,49.01271],[8.42973,49.01273],[8.42974,49.01275],[8.42974,49.01278],[8.42976,49.01277],[8.42977,49.01279],[8.42974,49.0128],[8.42974,49.01282],[8.42977,49.01283],[8.4298,49.01284]]}},{"type":"Feature","id":"way/891692711","properties":{"playground":"sandpit","id":"way/891692711"},"geometry":{"type":"LineString","coordinates":[[8.42979,49.01269],[8.42985,49.01267],[8.42985,49.01265],[8.42981,49.01264],[8.42978,49.01265],[8.42975,49.01263],[8.42972,49.01263],[8.42969,49.01263],[8.42968,49.01265],[8.42968,49.01267],[8.42973,49.01267],[8.42976,49.01269],[8.42978,49.01269],[8.42979,49.01269]]}},{"type":"Feature","id":"way/899026335","properties":{"playground":"sandpit","id":"way/899026335"},"geometry":{"type":"LineString","coordinates":[[8.41779,49.00143],[8.41779,49.00142],[8.41781,49.00141],[8.41783,49.0014],[8.41785,49.00141],[8.41787,49.00142],[8.41787,49.00143],[8.41787,49.00145],[8.41785,49.00146],[8.41783,49.00146],[8.41781,49.00146],[8.41779,49.00145],[8.41779,49.00143]]}},{"type":"Feature","id":"way/899026341","properties":{"playground":"sandpit","id":"way/899026341"},"geometry":{"type":"LineString","coordinates":[[8.41904,49.00139],[8.41907,49.00139],[8.41909,49.0014],[8.4191,49.00133],[8.41903,49.00133],[8.41902,49.00139],[8.41904,49.00139]]}},{"type":"Feature","id":"way/908580326","properties":{"playground":"sandpit","id":"way/908580326"},"geometry":{"type":"LineString","coordinates":[[8.41799,49.00081],[8.418,49.00082],[8.41802,49.00083],[8.41804,49.00083],[8.41807,49.00083],[8.4181,49.00082],[8.41812,49.00082],[8.41814,49.0008],[8.41815,49.00079],[8.41815,49.00078],[8.41814,49.00077],[8.41813,49.00076],[8.41811,49.00076],[8.41808,49.00076],[8.41805,49.00076],[8.41802,49.00077],[8.418,49.00078],[8.41799,49.00079],[8.41799,49.00081]]}},{"type":"Feature","id":"way/958663342","properties":{"playground":"sandpit","id":"way/958663342"},"geometry":{"type":"LineString","coordinates":[[8.4102,48.97313],[8.41019,48.97306],[8.41041,48.97302],[8.41043,48.97308],[8.41042,48.97309],[8.41023,48.97315],[8.41021,48.97314],[8.4102,48.97313]]}},{"type":"Feature","id":"way/1087256071","properties":{"playground":"sandpit","id":"way/1087256071"},"geometry":{"type":"LineString","coordinates":[[8.38271,49.004],[8.38274,49.00402],[8.38274,49.00406],[8.38268,49.00406],[8.38268,49.00402],[8.38271,49.004]]}},{"type":"Feature","id":"way/1087444332","properties":{"playground":"sandpit","surface":"sand","id":"way/1087444332"},"geometry":{"type":"LineString","coordinates":[[8.49511,49.01163],[8.49507,49.01155],[8.49514,49.01154],[8.49517,49.01162],[8.49511,49.01163]]}},{"type":"Feature","id":"way/1111963131","properties":{"playground":"sandpit","id":"way/1111963131"},"geometry":{"type":"LineString","coordinates":[[8.48043,48.97045],[8.4804,48.97045],[8.4804,48.97043],[8.48038,48.97042],[8.48033,48.97038],[8.48034,48.97036],[8.48039,48.97033],[8.48043,48.97032],[8.48046,48.97032],[8.48048,48.97033],[8.48048,48.97036],[8.48049,48.97039],[8.4805,48.97042],[8.48048,48.97044],[8.48045,48.97045],[8.48043,48.97045]]}},{"type":"Feature","id":"way/1130724463","properties":{"playground":"sandpit","id":"way/1130724463"},"geometry":{"type":"LineString","coordinates":[[8.42975,49.01296],[8.42982,49.01294],[8.42983,49.01295],[8.42984,49.01296],[8.42986,49.013],[8.42984,49.01301],[8.4298,49.01302],[8.42978,49.01302],[8.42975,49.01296]]}},{"type":"Feature","id":"way/1312513368","properties":{"playground":"sandpit","id":"way/1312513368"},"geometry":{"type":"LineString","coordinates":[[8.48112,49.00622],[8.48111,49.00623],[8.4811,49.00624],[8.4811,49.00625],[8.4811,49.00627],[8.48111,49.00628],[8.48113,49.00629],[8.48114,49.00629],[8.48116,49.00629],[8.48118,49.00629],[8.48119,49.00628],[8.4812,49.00627],[8.48121,49.00626],[8.48121,49.00625],[8.4812,49.00624],[8.48119,49.00623],[8.48118,49.00622],[8.48116,49.00622],[8.48114,49.00622],[8.48112,49.00622]]}}]}